{
  "links" : {
    "next" : "https://api.nasa.gov/neo/rest/v1/feed?start_date=2014-12-16&end_date=2014-12-16&detailed=true&api_key=t0TVs3DtDT2H8Oy2Zy8m2eVrNsAVKAexjcZXUckd",
    "prev" : "https://api.nasa.gov/neo/rest/v1/feed?start_date=2014-12-14&end_date=2014-12-14&detailed=true&api_key=t0TVs3DtDT2H8Oy2Zy8m2eVrNsAVKAexjcZXUckd",
    "self" : "https://api.nasa.gov/neo/rest/v1/feed?start_date=2014-12-15&end_date=2014-12-15&detailed=true&api_key=t0TVs3DtDT2H8Oy2Zy8m2eVrNsAVKAexjcZXUckd"
  },
  "element_count" : 11,
  "near_earth_objects" : {
    "2014-12-15" : [ {
      "links" : {
        "self" : "https://api.nasa.gov/neo/rest/v1/neo/3441023?api_key=t0TVs3DtDT2H8Oy2Zy8m2eVrNsAVKAexjcZXUckd"
      },
      "neo_reference_id" : "3441023",
      "name" : "(2008 XF)",
      "nasa_jpl_url" : "http://ssd.jpl.nasa.gov/sbdb.cgi?sstr=3441023",
      "absolute_magnitude_h" : 23.4,
      "estimated_diameter" : {
        "kilometers" : {
          "estimated_diameter_min" : 0.0555334912,
          "estimated_diameter_max" : 0.1241766613
        },
        "meters" : {
          "estimated_diameter_min" : 55.5334911581,
          "estimated_diameter_max" : 124.1766612574
        },
        "miles" : {
          "estimated_diameter_min" : 0.0345069009,
          "estimated_diameter_max" : 0.0771597762
        },
        "feet" : {
          "estimated_diameter_min" : 182.1964991311,
          "estimated_diameter_max" : 407.4037573197
        }
      },
      "is_potentially_hazardous_asteroid" : false,
      "close_approach_data" : [ {
        "close_approach_date" : "2014-12-15",
        "epoch_date_close_approach" : 1418630400000,
        "relative_velocity" : {
          "kilometers_per_second" : "7.8948641646",
          "kilometers_per_hour" : "28421.5109924834",
          "miles_per_hour" : "17660.0216497461"
        },
        "miss_distance" : {
          "astronomical" : "0.2219439977",
          "lunar" : "86.3362197876",
          "kilometers" : "33202350",
          "miles" : "20630984"
        },
        "orbiting_body" : "Earth"
      } ],
      "orbital_data" : {
        "orbit_id" : "9",
        "orbit_determination_date" : "2017-04-06 09:02:01",
        "orbit_uncertainty" : "1",
        "minimum_orbit_intersection" : ".201877",
        "jupiter_tisserand_invariant" : "4.950",
        "epoch_osculation" : "2458000.5",
        "eccentricity" : ".1371079995225007",
        "semi_major_axis" : "1.304279865879923",
        "inclination" : "14.45057228985064",
        "ascending_node_longitude" : "238.8513886290639",
        "orbital_period" : "544.0697901617758",
        "perihelion_distance" : "1.125452662651651",
        "perihelion_argument" : "243.9675870819516",
        "aphelion_distance" : "1.483107069108195",
        "perihelion_time" : "2458135.406547442604",
        "mean_anomaly" : "270.7350601750988",
        "mean_motion" : ".6616798184897497",
        "equinox" : "J2000"
      }
    }, {
      "links" : {
        "self" : "https://api.nasa.gov/neo/rest/v1/neo/3655869?api_key=t0TVs3DtDT2H8Oy2Zy8m2eVrNsAVKAexjcZXUckd"
      },
      "neo_reference_id" : "3655869",
      "name" : "(2014 AW32)",
      "nasa_jpl_url" : "http://ssd.jpl.nasa.gov/sbdb.cgi?sstr=3655869",
      "absolute_magnitude_h" : 27.5,
      "estimated_diameter" : {
        "kilometers" : {
          "estimated_diameter_min" : 0.008405334,
          "estimated_diameter_max" : 0.0187948982
        },
        "meters" : {
          "estimated_diameter_min" : 8.4053340207,
          "estimated_diameter_max" : 18.7948982439
        },
        "miles" : {
          "estimated_diameter_min" : 0.0052228308,
          "estimated_diameter_max" : 0.0116786047
        },
        "feet" : {
          "estimated_diameter_min" : 27.5765560686,
          "estimated_diameter_max" : 61.6630539546
        }
      },
      "is_potentially_hazardous_asteroid" : false,
      "close_approach_data" : [ {
        "close_approach_date" : "2014-12-15",
        "epoch_date_close_approach" : 1418630400000,
        "relative_velocity" : {
          "kilometers_per_second" : "9.0567238805",
          "kilometers_per_hour" : "32604.2059697627",
          "miles_per_hour" : "20258.9856482673"
        },
        "miss_distance" : {
          "astronomical" : "0.3775315994",
          "lunar" : "146.8597869873",
          "kilometers" : "56477924",
          "miles" : "35093752"
        },
        "orbiting_body" : "Earth"
      } ],
      "orbital_data" : {
        "orbit_id" : "6",
        "orbit_determination_date" : "2017-04-06 08:42:57",
        "orbit_uncertainty" : "6",
        "minimum_orbit_intersection" : ".00196446",
        "jupiter_tisserand_invariant" : "5.818",
        "epoch_osculation" : "2458000.5",
        "eccentricity" : ".2587352524863429",
        "semi_major_axis" : "1.041760803590794",
        "inclination" : "17.83523236683973",
        "ascending_node_longitude" : "290.1799253083974",
        "orbital_period" : "388.3742668083705",
        "perihelion_distance" : ".7722205590433545",
        "perihelion_argument" : "272.8453849897361",
        "aphelion_distance" : "1.311301048138234",
        "perihelion_time" : "2457901.771833555107",
        "mean_anomaly" : "91.51517738866647",
        "mean_motion" : ".9269409195373627",
        "equinox" : "J2000"
      }
    }, {
      "links" : {
        "self" : "https://api.nasa.gov/neo/rest/v1/neo/3696450?api_key=t0TVs3DtDT2H8Oy2Zy8m2eVrNsAVKAexjcZXUckd"
      },
      "neo_reference_id" : "3696450",
      "name" : "(2014 WO7)",
      "nasa_jpl_url" : "http://ssd.jpl.nasa.gov/sbdb.cgi?sstr=3696450",
      "absolute_magnitude_h" : 20.5,
      "estimated_diameter" : {
        "kilometers" : {
          "estimated_diameter_min" : 0.2111324448,
          "estimated_diameter_max" : 0.4721064988
        },
        "meters" : {
          "estimated_diameter_min" : 211.1324447897,
          "estimated_diameter_max" : 472.1064988055
        },
        "miles" : {
          "estimated_diameter_min" : 0.1311915784,
          "estimated_diameter_max" : 0.2933532873
        },
        "feet" : {
          "estimated_diameter_min" : 692.6917701639,
          "estimated_diameter_max" : 1548.9058855411
        }
      },
      "is_potentially_hazardous_asteroid" : false,
      "close_approach_data" : [ {
        "close_approach_date" : "2014-12-15",
        "epoch_date_close_approach" : 1418630400000,
        "relative_velocity" : {
          "kilometers_per_second" : "13.0704508158",
          "kilometers_per_hour" : "47053.6229368163",
          "miles_per_hour" : "29237.2914298234"
        },
        "miss_distance" : {
          "astronomical" : "0.2177187249",
          "lunar" : "84.6925811768",
          "kilometers" : "32570258",
          "miles" : "20238220"
        },
        "orbiting_body" : "Earth"
      } ],
      "orbital_data" : {
        "orbit_id" : "32",
        "orbit_determination_date" : "2017-04-06 08:37:24",
        "orbit_uncertainty" : "3",
        "minimum_orbit_intersection" : ".0610687",
        "jupiter_tisserand_invariant" : "4.774",
        "epoch_osculation" : "2458000.5",
        "eccentricity" : ".3444750583271731",
        "semi_major_axis" : "1.336363571147051",
        "inclination" : "22.23635827619831",
        "ascending_node_longitude" : "244.1033805442821",
        "orbital_period" : "564.2679319356148",
        "perihelion_distance" : ".8760196520298613",
        "perihelion_argument" : "283.4585303842189",
        "aphelion_distance" : "1.796707490264241",
        "perihelion_time" : "2458211.923787410754",
        "mean_anomaly" : "225.1127254267637",
        "mean_motion" : ".6379947886903441",
        "equinox" : "J2000"
      }
    } ]
  }
}